start=new Date('2022-10-10T00:00:00.000Z').valueOf();
sats=[{"MEAN_ELEMENT_THEORY":"SGP4","MEAN_ANOMALY":"321.2749","ELEMENT_SET_NO":"999","CLASSIFICATION_TYPE":"U","NORAD_CAT_ID":"52360","FILE":"3598879","ECCENTRICITY":"0.00021030","TIME_SYSTEM":"UTC","MEAN_MOTION_DOT":"0.00002727","LAUNCH_DATE":"2022-04-29","TLE_LINE2":"2 52360  53.2193  26.5445 0002103  38.8394 321.2749 15.08846671 27674","EPOCH":"2022-10-09T19:40:33.326688","PERIAPSIS":"538.270","RA_OF_ASC_NODE":"26.5445","MEAN_MOTION_DDOT":"0.0000000000000","CENTER_NAME":"EARTH","APOAPSIS":"541.180","GP_ID":"214605378","MEAN_MOTION":"15.08846671","REV_AT_EPOCH":"2767","DECAY_DATE":null,"OBJECT_ID":"2022-045AF","COUNTRY_CODE":"US","TLE_LINE1":"1 52360U 22045AF  22282.81983017  .00002727  00000-0  18931-3 0  9995","ARG_OF_PERICENTER":"38.8394","SEMIMAJOR_AXIS":"6917.860","OBJECT_NAME":"STARLINK-3824","SITE":"AFETR","PERIOD":"95.437","BSTAR":"0.00018931000000","EPHEMERIS_TYPE":"0","REF_FRAME":"TEME","RCS_SIZE":"LARGE","OBJECT_TYPE":"PAYLOAD","INCLINATION":"53.2193"},{"REV_AT_EPOCH":"2752","DECAY_DATE":null,"OBJECT_ID":"2022-045AG","COUNTRY_CODE":"US","TLE_LINE1":"1 52361U 22045AG  22282.63492178 -.00000809  00000-0 -32722-4 0  9995","ARG_OF_PERICENTER":"43.7203","SEMIMAJOR_AXIS":"6917.874","OBJECT_NAME":"STARLINK-3728","SITE":"AFETR","PERIOD":"95.437","BSTAR":"-0.00003272200000","EPHEMERIS_TYPE":"0","REF_FRAME":"TEME","RCS_SIZE":"LARGE","OBJECT_TYPE":"PAYLOAD","INCLINATION":"53.2216","MEAN_ELEMENT_THEORY":"SGP4","MEAN_ANOMALY":"316.3961","ELEMENT_SET_NO":"999","CLASSIFICATION_TYPE":"U","FILE":"3598879","NORAD_CAT_ID":"52361","ECCENTRICITY":"0.00021650","TIME_SYSTEM":"UTC","LAUNCH_DATE":"2022-04-29","MEAN_MOTION_DOT":"-0.00000809","TLE_LINE2":"2 52361  53.2216  37.3646 0002165  43.7203 316.3961 15.08842184 27526","EPOCH":"2022-10-09T15:14:17.241792","PERIAPSIS":"538.241","RA_OF_ASC_NODE":"37.3646","MEAN_MOTION_DDOT":"0.0000000000000","CENTER_NAME":"EARTH","APOAPSIS":"541.236","GP_ID":"214604129","MEAN_MOTION":"15.08842184"},{"INCLINATION":"53.2183","OBJECT_TYPE":"PAYLOAD","RCS_SIZE":"LARGE","REF_FRAME":"TEME","EPHEMERIS_TYPE":"0","BSTAR":"0.00004717600000","PERIOD":"95.438","SITE":"AFETR","TLE_LINE1":"1 52362U 22045AH  22282.61744186  .00000462  00000-0  47176-4 0  9995","ARG_OF_PERICENTER":"33.6996","SEMIMAJOR_AXIS":"6917.905","OBJECT_NAME":"STARLINK-3848","COUNTRY_CODE":"US","OBJECT_ID":"2022-045AH","DECAY_DATE":null,"REV_AT_EPOCH":"2765","MEAN_MOTION":"15.08832044","GP_ID":"214603876","APOAPSIS":"541.287","CENTER_NAME":"EARTH","MEAN_MOTION_DDOT":"0.0000000000000","RA_OF_ASC_NODE":"27.4486","PERIAPSIS":"538.253","EPOCH":"2022-10-09T14:49:06.976704","TLE_LINE2":"2 52362  53.2183  27.4486 0002193  33.6996 326.4135 15.08832044 27653","LAUNCH_DATE":"2022-04-29","MEAN_MOTION_DOT":"0.00000462","FILE":"3598879","NORAD_CAT_ID":"52362","TIME_SYSTEM":"UTC","ECCENTRICITY":"0.00021930","CLASSIFICATION_TYPE":"U","ELEMENT_SET_NO":"999","MEAN_ANOMALY":"326.4135","MEAN_ELEMENT_THEORY":"SGP4"},{"MEAN_MOTION_DDOT":"0.0000000000000","CENTER_NAME":"EARTH","APOAPSIS":"541.112","GP_ID":"214604625","MEAN_MOTION":"15.08842318","PERIAPSIS":"538.365","RA_OF_ASC_NODE":"37.0776","NORAD_CAT_ID":"52363","FILE":"3598879","ECCENTRICITY":"0.00019850","TIME_SYSTEM":"UTC","MEAN_MOTION_DOT":"0.00000462","LAUNCH_DATE":"2022-04-29","TLE_LINE2":"2 52363  53.2210  37.0776 0001985  42.1303 317.9842 15.08842318 27531","EPOCH":"2022-10-09T16:44:22.100064","MEAN_ELEMENT_THEORY":"SGP4","MEAN_ANOMALY":"317.9842","ELEMENT_SET_NO":"999","CLASSIFICATION_TYPE":"U","BSTAR":"0.00004712000000","EPHEMERIS_TYPE":"0","REF_FRAME":"TEME","RCS_SIZE":"LARGE","OBJECT_TYPE":"PAYLOAD","INCLINATION":"53.2210","SITE":"AFETR","PERIOD":"95.437","TLE_LINE1":"1 52363U 22045AJ  22282.69747801  .00000462  00000-0  47120-4 0  9990","SEMIMAJOR_AXIS":"6917.873","OBJECT_NAME":"STARLINK-3830","ARG_OF_PERICENTER":"42.1303","REV_AT_EPOCH":"2753","DECAY_DATE":null,"OBJECT_ID":"2022-045AJ","COUNTRY_CODE":"US"},{"OBJECT_ID":"2022-045AK","COUNTRY_CODE":"US","REV_AT_EPOCH":"2766","DECAY_DATE":null,"TLE_LINE1":"1 52364U 22045AK  22282.67727095  .00001666  00000-0  12275-3 0  9991","OBJECT_NAME":"STARLINK-3820","SEMIMAJOR_AXIS":"6917.852","ARG_OF_PERICENTER":"32.7506","PERIOD":"95.437","SITE":"AFETR","RCS_SIZE":"LARGE","OBJECT_TYPE":"PAYLOAD","INCLINATION":"53.2176","BSTAR":"0.00012275000000","EPHEMERIS_TYPE":"0","REF_FRAME":"TEME","ELEMENT_SET_NO":"999","CLASSIFICATION_TYPE":"U","MEAN_ELEMENT_THEORY":"SGP4","MEAN_ANOMALY":"327.3626","EPOCH":"2022-10-09T16:15:16.210080","TIME_SYSTEM":"UTC","FILE":"3598879","NORAD_CAT_ID":"52364","ECCENTRICITY":"0.00022610","LAUNCH_DATE":"2022-04-29","MEAN_MOTION_DOT":"0.00001666","TLE_LINE2":"2 52364  53.2176  27.1683 0002261  32.7506 327.3626 15.08849363 27664","RA_OF_ASC_NODE":"27.1683","PERIAPSIS":"538.153","GP_ID":"214604879","MEAN_MOTION":"15.08849363","MEAN_MOTION_DDOT":"0.0000000000000","CENTER_NAME":"EARTH","APOAPSIS":"541.281"},{"RA_OF_ASC_NODE":"27.7023","PERIAPSIS":"538.232","GP_ID":"214562391","MEAN_MOTION":"15.08843836","MEAN_MOTION_DDOT":"0.0000000000000","CENTER_NAME":"EARTH","APOAPSIS":"541.235","ELEMENT_SET_NO":"999","CLASSIFICATION_TYPE":"U","MEAN_ELEMENT_THEORY":"SGP4","MEAN_ANOMALY":"320.3927","EPOCH":"2022-10-09T13:24:19.460448","NORAD_CAT_ID":"52365","FILE":"3597861","ECCENTRICITY":"0.00021700","TIME_SYSTEM":"UTC","MEAN_MOTION_DOT":"0.00000877","LAUNCH_DATE":"2022-04-29","TLE_LINE2":"2 52365  53.2186  27.7023 0002170  39.7224 320.3927 15.08843836 27647","PERIOD":"95.437","SITE":"AFETR","RCS_SIZE":"LARGE","OBJECT_TYPE":"PAYLOAD","INCLINATION":"53.2186","BSTAR":"0.00007317400000","EPHEMERIS_TYPE":"0","REF_FRAME":"TEME","OBJECT_ID":"2022-045AL","COUNTRY_CODE":"US","REV_AT_EPOCH":"2764","DECAY_DATE":null,"TLE_LINE1":"1 52365U 22045AL  22282.55855857  .00000877  00000-0  73174-4 0  9996","OBJECT_NAME":"STARLINK-3874","SEMIMAJOR_AXIS":"6917.869","ARG_OF_PERICENTER":"39.7224"},{"EPHEMERIS_TYPE":"0","BSTAR":"0.00034752000000","REF_FRAME":"TEME","RCS_SIZE":"LARGE","INCLINATION":"53.2166","OBJECT_TYPE":"PAYLOAD","SITE":"AFETR","PERIOD":"95.437","TLE_LINE1":"1 52366U 22045AM  22282.60638839  .00005249  00000-0  34752-3 0  9998","SEMIMAJOR_AXIS":"6917.841","ARG_OF_PERICENTER":"57.8443","OBJECT_NAME":"STARLINK-3808","REV_AT_EPOCH":"2765","DECAY_DATE":null,"OBJECT_ID":"2022-045AM","COUNTRY_CODE":"US","CENTER_NAME":"EARTH","MEAN_MOTION_DDOT":"0.0000000000000","APOAPSIS":"540.577","MEAN_MOTION":"15.08852951","GP_ID":"214604376","PERIAPSIS":"538.835","RA_OF_ASC_NODE":"27.4871","ECCENTRICITY":"0.00012590","FILE":"3598879","NORAD_CAT_ID":"52366","TIME_SYSTEM":"UTC","TLE_LINE2":"2 52366  53.2166  27.4871 0001259  57.8443 302.2672 15.08852951 27650","LAUNCH_DATE":"2022-04-29","MEAN_MOTION_DOT":"0.00005249","EPOCH":"2022-10-09T14:33:11.956896","MEAN_ANOMALY":"302.2672","MEAN_ELEMENT_THEORY":"SGP4","CLASSIFICATION_TYPE":"U","ELEMENT_SET_NO":"999"},{"PERIOD":"95.436","SITE":"AFETR","OBJECT_TYPE":"PAYLOAD","INCLINATION":"53.2171","RCS_SIZE":"LARGE","REF_FRAME":"TEME","BSTAR":"-0.00017645000000","EPHEMERIS_TYPE":"0","COUNTRY_CODE":"US","OBJECT_ID":"2022-045AN","DECAY_DATE":null,"REV_AT_EPOCH":"2765","TLE_LINE1":"1 52367U 22045AN  22282.61375154 -.00003097  00000-0 -17645-3 0  9991","SEMIMAJOR_AXIS":"6917.813","ARG_OF_PERICENTER":"29.8363","OBJECT_NAME":"STARLINK-3817","RA_OF_ASC_NODE":"27.4554","PERIAPSIS":"538.169","GP_ID":"214605125","MEAN_MOTION":"15.08862105","APOAPSIS":"541.187","MEAN_MOTION_DDOT":"0.0000000000000","CENTER_NAME":"EARTH","ELEMENT_SET_NO":"999","CLASSIFICATION_TYPE":"U","MEAN_ELEMENT_THEORY":"SGP4","MEAN_ANOMALY":"330.2753","EPOCH":"2022-10-09T14:43:48.133056","LAUNCH_DATE":"2022-04-29","MEAN_MOTION_DOT":"-0.00003097","TLE_LINE2":"2 52367  53.2171  27.4554 0002181  29.8363 330.2753 15.08862105 27653","NORAD_CAT_ID":"52367","FILE":"3598879","ECCENTRICITY":"0.00021810","TIME_SYSTEM":"UTC"},{"REV_AT_EPOCH":"2767","DECAY_DATE":null,"OBJECT_ID":"2022-045AP","COUNTRY_CODE":"US","SEMIMAJOR_AXIS":"6917.874","TLE_LINE1":"1 52368U 22045AP  22282.79407861  .00001811  00000-0  13184-3 0  9996","ARG_OF_PERICENTER":"44.9906","OBJECT_NAME":"STARLINK-3834","SITE":"AFETR","PERIOD":"95.437","EPHEMERIS_TYPE":"0","BSTAR":"0.00013184000000","REF_FRAME":"TEME","RCS_SIZE":"LARGE","INCLINATION":"53.2185","OBJECT_TYPE":"PAYLOAD","MEAN_ANOMALY":"315.1243","MEAN_ELEMENT_THEORY":"SGP4","CLASSIFICATION_TYPE":"U","ELEMENT_SET_NO":"999","FILE":"3598879","NORAD_CAT_ID":"52368","ECCENTRICITY":"0.00019340","TIME_SYSTEM":"UTC","TLE_LINE2":"2 52368  53.2185  26.6454 0001934  44.9906 315.1243 15.08841948 27675","LAUNCH_DATE":"2022-04-29","MEAN_MOTION_DOT":"0.00001811","EPOCH":"2022-10-09T19:03:28.391904","PERIAPSIS":"538.402","RA_OF_ASC_NODE":"26.6454","CENTER_NAME":"EARTH","MEAN_MOTION_DDOT":"0.0000000000000","APOAPSIS":"541.077","MEAN_MOTION":"15.08841948","GP_ID":"214605379"},{"DECAY_DATE":null,"REV_AT_EPOCH":"2765","COUNTRY_CODE":"US","OBJECT_ID":"2022-045AQ","TLE_LINE1":"1 52369U 22045AQ  22282.61008728 -.00000647  00000-0 -22519-4 0  9998","ARG_OF_PERICENTER":"38.7826","SEMIMAJOR_AXIS":"6917.895","OBJECT_NAME":"STARLINK-3841","SITE":"AFETR","PERIOD":"95.438","REF_FRAME":"TEME","BSTAR":"-0.00002251900000","EPHEMERIS_TYPE":"0","OBJECT_TYPE":"PAYLOAD","INCLINATION":"53.2194","RCS_SIZE":"LARGE","MEAN_ELEMENT_THEORY":"SGP4","MEAN_ANOMALY":"321.3318","ELEMENT_SET_NO":"999","CLASSIFICATION_TYPE":"U","LAUNCH_DATE":"2022-04-29","MEAN_MOTION_DOT":"-0.00000647","TLE_LINE2":"2 52369  53.2194  27.4741 0002116  38.7826 321.3318 15.08835344 27652","ECCENTRICITY":"0.00021160","FILE":"3598879","NORAD_CAT_ID":"52369","TIME_SYSTEM":"UTC","EPOCH":"2022-10-09T14:38:31.540992","PERIAPSIS":"538.296","RA_OF_ASC_NODE":"27.4741","APOAPSIS":"541.223","MEAN_MOTION_DDOT":"0.0000000000000","CENTER_NAME":"EARTH","GP_ID":"214604130","MEAN_MOTION":"15.08835344"}];
